{"spkid": "20811221", "covariance": {"data": [["3.49289912857904E-17", "-7.134547586109069E-17", "-4.558545740351694E-15", "1.199715966064039E-14", "-1.507971544927053E-14", "-3.461386493353207E-15"], ["-7.134547586109069E-17", "1.474305848601313E-16", "6.483657786442776E-15", "-2.446974048730571E-14", "2.962929189383275E-14", "6.551197420311592E-15"], ["-4.558545740351694E-15", "6.483657786442776E-15", "3.899294615054374E-11", "4.515219778049098E-12", "3.919150935444694E-11", "-2.255389392742351E-12"], ["1.199715966064039E-14", "-2.446974048730571E-14", "4.515219778049098E-12", "3.275300030933066E-11", "-2.593442161519171E-11", "2.795200084959431E-13"], ["-1.507971544927053E-14", "2.962929189383275E-14", "3.919150935444694E-11", "-2.593442161519171E-11", "7.138601774825093E-11", "-4.001086469334177E-12"], ["-3.461386493353207E-15", "6.551197420311592E-15", "-2.255389392742351E-12", "2.795200084959431E-13", "-4.001086469334177E-12", "8.141277778194724E-12"]], "elements": [{"label": "e", "name": "e", "sigma": 5.91007540440817e-09, "title": "eccentricity", "value": ".5167272449974974", "units": null}, {"value": "1.002830528462088", "title": "perihelion distance", "units": "au", "name": "q", "sigma": 1.21420996891037e-08, "label": "q"}, {"name": "tp", "sigma": 6.24443321291402e-06, "title": "time of perihelion passage", "value": "2459666.852022900274", "units": "TDB", "label": "tp"}, {"label": "node", "units": "deg", "value": "6.450850699475052", "title": "longitude of the ascending node", "sigma": 5.72302370336963e-06, "name": "om"}, {"label": "peri", "units": "deg", "value": "175.5931499757307", "title": "argument of perihelion", "name": "w", "sigma": 8.44902466254247e-06}, {"label": "i", "name": "i", "sigma": 2.85329244526297e-06, "units": "deg", "title": "inclination", "value": "5.311793931471875"}], "labels": ["e", "q", "tp", "node", "peri", "i"], "epoch": "2459689.5"}, "elements": [{"value": ".5161971032025803", "title": "eccentricity", "units": null, "sigma": "6.7989E-9", "name": "e", "label": "e"}, {"value": "2.082601892355822", "title": "semi-major axis", "units": "au", "sigma": "4.7347E-9", "name": "a", "label": "a"}, {"label": "q", "name": "q", "sigma": "1.2073E-8", "units": "au", "title": "perihelion distance", "value": "1.007568828397535"}, {"value": "5.260746331851207", "title": "inclination; angle with respect to x-y ecliptic plane", "units": "deg", "sigma": "2.8627E-6", "name": "i", "label": "i"}, {"label": "node", "value": "6.271720068446268", "title": "longitude of the ascending node", "units": "deg", "name": "om", "sigma": "5.7451E-6"}, {"title": "argument of perihelion", "value": "175.9523193121471", "units": "deg", "sigma": "8.5242E-6", "name": "w", "label": "peri"}, {"title": "mean anomaly", "value": "144.6133909661982", "units": "deg", "sigma": "1.9935E-6", "name": "ma", "label": "M"}, {"name": "tp", "sigma": "6.0856E-6", "value": "2460759.525147225369", "title": "time of perihelion passage", "units": "TDB", "label": "tp"}, {"sigma": "3.7436E-6", "name": "per", "title": "sidereal orbital period", "value": "1097.761043691821", "units": "d", "label": "period"}, {"value": ".3279402216618138", "title": "mean motion", "units": "deg/d", "sigma": "1.1183E-9", "name": "n", "label": "n"}, {"label": "Q", "sigma": "7.1787E-9", "name": "ad", "units": "au", "value": "3.15763495631411", "title": "aphelion distance"}], "epoch": "2461200.5"}